{
    "links": {
        "self": "http://www.neowsapp.com/rest/v1/neo/3684349?api_key=iIulBulltgU6a56xZRHN4H3l9WmuAYTsLGpBGhQ2"
    },
    "id": "3684349",
    "neo_reference_id": "3684349",
    "name": "(2014 QQ362)",
    "designation": "2014 QQ362",
    "nasa_jpl_url": "http://ssd.jpl.nasa.gov/sbdb.cgi?sstr=3684349",
    "absolute_magnitude_h": 24.0,
    "estimated_diameter": {
        "kilometers": {
            "estimated_diameter_min": 0.0421264611,
            "estimated_diameter_max": 0.0941976306
        },
        "meters": {
            "estimated_diameter_min": 42.1264610556,
            "estimated_diameter_max": 94.1976305719
        },
        "miles": {
            "estimated_diameter_min": 0.0261761612,
            "estimated_diameter_max": 0.0585316759
        },
        "feet": {
            "estimated_diameter_min": 138.2101784897,
            "estimated_diameter_max": 309.0473542854
        }
    },
    "is_potentially_hazardous_asteroid": false,
    "close_approach_data": [
        {
            "close_approach_date": "1943-02-12",
            "close_approach_date_full": "1943-Feb-12 16:42",
            "epoch_date_close_approach": -848387880000,
            "relative_velocity": {
                "kilometers_per_second": "16.7222083285",
                "kilometers_per_hour": "60199.9499827213",
                "miles_per_hour": "37405.907810097"
            },
            "miss_distance": {
                "astronomical": "0.1319861071",
                "lunar": "51.3425956619",
                "kilometers": "19744840.491751877",
                "miles": "12268874.9662828226"
            },
            "orbiting_body": "Venus"
        },
        {
            "close_approach_date": "2014-09-09",
            "close_approach_date_full": "2014-Sep-09 09:50",
            "epoch_date_close_approach": 1410256200000,
            "relative_velocity": {
                "kilometers_per_second": "15.8699138097",
                "kilometers_per_hour": "57131.6897150302",
                "miles_per_hour": "35499.4102009864"
            },
            "miss_distance": {
                "astronomical": "0.0593411535",
                "lunar": "23.0837087115",
                "kilometers": "8877310.166943045",
                "miles": "5516104.752562221"
            },
            "orbiting_body": "Earth"
        }
    ],
    "orbital_data": {
        "orbit_id": "3",
        "orbit_determination_date": "2017-04-06 08:39:04",
        "first_observation_date": "2014-08-25",
        "last_observation_date": "2014-08-30",
        "data_arc_in_days": 5,
        "observations_used": 12,
        "orbit_uncertainty": "9",
        "minimum_orbit_intersection": ".039827",
        "jupiter_tisserand_invariant": "3.402",
        "epoch_osculation": "2456896.5",
        "eccentricity": ".6537257110338068",
        "semi_major_axis": "2.132072922428575",
        "inclination": "7.272236811826687",
        "ascending_node_longitude": "143.5117631767563",
        "orbital_period": "1137.107460124311",
        "perihelion_distance": ".7382820352380284",
        "perihelion_argument": "272.2801465334941",
        "aphelion_distance": "3.525863809619122",
        "perihelion_time": "2456954.627343053298",
        "mean_anomaly": "341.5973034800953",
        "mean_motion": ".316592769482529",
        "equinox": "J2000",
        "orbit_class": {
            "orbit_class_type": "APO",
            "orbit_class_description": "Near-Earth asteroid orbits which cross the Earth’s orbit similar to that of 1862 Apollo",
            "orbit_class_range": "a (semi-major axis) > 1.0 AU; q (perihelion) < 1.017 AU"
        }
    },
    "is_sentry_object": false
}